{
  "type": "FeatureCollection",
  "features": [
    {
      "type": "Feature",
      "properties": {
        "norad_id": 63772,
        "name": "BIOMASS",
        "group": "resource",
        "lat": 78.37532135368264,
        "lon": 117.82004025348108,
        "alt_km": 660.7537473552793,
        "timestamp": "2025-12-02T06:27:52.679086+00:00",
        "meta_object_name": "BIOMASS",
        "meta_object_id": "2025-090A",
        "meta_epoch": "2025-12-01T18:38:22.623072",
        "meta_mean_motion": 14.67539337,
        "meta_eccentricity": 0.0001211,
        "meta_inclination": 98.0708,
        "meta_ra_of_asc_node": 160.9452,
        "meta_arg_of_pericenter": 83.2516,
        "meta_mean_anomaly": 276.8827,
        "meta_ephemeris_type": 0,
        "meta_classification_type": "U",
        "meta_norad_cat_id": 63772,
        "meta_element_set_no": 999,
        "meta_rev_at_epoch": 3173,
        "meta_bstar": 0.00027874,
        "meta_mean_motion_dot": 1.533e-05,
        "meta_mean_motion_ddot": 0,
        "tle_line1": "1 63772U 25090A   25335.77665073  .00001533  00000+0  27874-3 0  9992",
        "tle_line2": "2 63772  98.0708 160.9452 0001211  83.2516 276.8827 14.67539337 31738"
      },
      "geometry": {
        "type": "Point",
        "coordinates": [
          117.82004025348108,
          78.37532135368264
        ]
      }
    },
    {
      "type": "Feature",
      "properties": {
        "norad_id": 64694,
        "name": "GOSAT-GW (IBUKI GW)",
        "group": "resource",
        "lat": -68.35474138945806,
        "lon": -67.16200649265097,
        "alt_km": 676.9338924154363,
        "timestamp": "2025-12-02T06:27:52.679096+00:00",
        "meta_object_name": "GOSAT-GW (IBUKI GW)",
        "meta_object_id": "2025-141A",
        "meta_epoch": "2025-11-30T05:41:32.267328",
        "meta_mean_motion": 14.67567435,
        "meta_eccentricity": 0.00014369,
        "meta_inclination": 98.0401,
        "meta_ra_of_asc_node": 269.9775,
        "meta_arg_of_pericenter": 82.921,
        "meta_mean_anomaly": 277.2158,
        "meta_ephemeris_type": 0,
        "meta_classification_type": "U",
        "meta_norad_cat_id": 64694,
        "meta_element_set_no": 999,
        "meta_rev_at_epoch": 2266,
        "meta_bstar": 0.00019762357,
        "meta_mean_motion_dot": 1.074e-05,
        "meta_mean_motion_ddot": 0,
        "tle_line1": "1 64694U 25141A   25334.23717902  .00001074  00000+0  19762-3 0  9999",
        "tle_line2": "2 64694  98.0401 269.9775 0001436  82.9210 277.2158 14.67567435 22660"
      },
      "geometry": {
        "type": "Point",
        "coordinates": [
          -67.16200649265097,
          -68.35474138945806
        ]
      }
    },
    {
      "type": "Feature",
      "properties": {
        "norad_id": 64876,
        "name": "IONOSFERA-M 3",
        "group": "resource",
        "lat": -47.73205144484618,
        "lon": 108.87482036674236,
        "alt_km": 828.8240372426999,
        "timestamp": "2025-12-02T06:27:52.679106+00:00",
        "meta_object_name": "IONOSFERA-M 3",
        "meta_object_id": "2025-155A",
        "meta_epoch": "2025-12-01T20:56:48.319008",
        "meta_mean_motion": 14.2143657,
        "meta_eccentricity": 0.0002406,
        "meta_inclination": 98.5767,
        "meta_ra_of_asc_node": 298.0473,
        "meta_arg_of_pericenter": 76.804,
        "meta_mean_anomaly": 283.3406,
        "meta_ephemeris_type": 0,
        "meta_classification_type": "U",
        "meta_norad_cat_id": 64876,
        "meta_element_set_no": 999,
        "meta_rev_at_epoch": 1837,
        "meta_bstar": 6.1594e-05,
        "meta_mean_motion_dot": 9.2e-07,
        "meta_mean_motion_ddot": 0,
        "tle_line1": "1 64876U 25155A   25335.87278147  .00000092  00000+0  61594-4 0  9990",
        "tle_line2": "2 64876  98.5767 298.0473 0002406  76.8040 283.3406 14.21436570 18373"
      },
      "geometry": {
        "type": "Point",
        "coordinates": [
          108.87482036674236,
          -47.73205144484618
        ]
      }
    },
    {
      "type": "Feature",
      "properties": {
        "norad_id": 64877,
        "name": "IONOSFERA-M 4",
        "group": "resource",
        "lat": 48.16009539352483,
        "lon": -71.35137723169278,
        "alt_km": 814.9947934373595,
        "timestamp": "2025-12-02T06:27:52.679116+00:00",
        "meta_object_name": "IONOSFERA-M 4",
        "meta_object_id": "2025-155B",
        "meta_epoch": "2025-12-01T21:47:18.716928",
        "meta_mean_motion": 14.21437592,
        "meta_eccentricity": 0.0001759,
        "meta_inclination": 98.5766,
        "meta_ra_of_asc_node": 298.0011,
        "meta_arg_of_pericenter": 74.555,
        "meta_mean_anomaly": 285.5822,
        "meta_ephemeris_type": 0,
        "meta_classification_type": "U",
        "meta_norad_cat_id": 64877,
        "meta_element_set_no": 999,
        "meta_rev_at_epoch": 1837,
        "meta_bstar": 6.4782e-05,
        "meta_mean_motion_dot": 9.9e-07,
        "meta_mean_motion_ddot": 0,
        "tle_line1": "1 64877U 25155B   25335.90785552  .00000099  00000+0  64782-4 0  9997",
        "tle_line2": "2 64877  98.5766 298.0011 0001759  74.5550 285.5822 14.21437592 18373"
      },
      "geometry": {
        "type": "Point",
        "coordinates": [
          -71.35137723169278,
          48.16009539352483
        ]
      }
    },
    {
      "type": "Feature",
      "properties": {
        "norad_id": 64899,
        "name": "MICROCARB",
        "group": "resource",
        "lat": 77.92843653880466,
        "lon": -87.07745740155336,
        "alt_km": 644.9295078411778,
        "timestamp": "2025-12-02T06:27:52.679127+00:00",
        "meta_object_name": "MICROCARB",
        "meta_object_id": "2025-156A",
        "meta_epoch": "2025-12-01T18:35:44.920608",
        "meta_mean_motion": 14.72026724,
        "meta_eccentricity": 0.0016424,
        "meta_inclination": 98.0037,
        "meta_ra_of_asc_node": 51.2958,
        "meta_arg_of_pericenter": 178.8531,
        "meta_mean_anomaly": 181.2717,
        "meta_ephemeris_type": 0,
        "meta_classification_type": "U",
        "meta_norad_cat_id": 64899,
        "meta_element_set_no": 999,
        "meta_rev_at_epoch": 1892,
        "meta_bstar": 0.00014153,
        "meta_mean_motion_dot": 8.41e-06,
        "meta_mean_motion_ddot": 0,
        "tle_line1": "1 64899U 25156A   25335.77482547  .00000841  00000+0  14153-3 0  9996",
        "tle_line2": "2 64899  98.0037  51.2958 0016424 178.8531 181.2717 14.72026724 18927"
      },
      "geometry": {
        "type": "Point",
        "coordinates": [
          -87.07745740155336,
          77.92843653880466
        ]
      }
    },
    {
      "type": "Feature",
      "properties": {
        "norad_id": 64900,
        "name": "CO3D 3",
        "group": "resource",
        "lat": 41.06328420178534,
        "lon": 45.03636937614082,
        "alt_km": 558.2430262133248,
        "timestamp": "2025-12-02T06:27:52.679137+00:00",
        "meta_object_name": "CO3D 3",
        "meta_object_id": "2025-156B",
        "meta_epoch": "2025-11-29T13:08:11.122944",
        "meta_mean_motion": 15.11495615,
        "meta_eccentricity": 0.01368669,
        "meta_inclination": 97.6723,
        "meta_ra_of_asc_node": 49.0485,
        "meta_arg_of_pericenter": 160.1625,
        "meta_mean_anomaly": 200.5002,
        "meta_ephemeris_type": 0,
        "meta_classification_type": "U",
        "meta_norad_cat_id": 64900,
        "meta_element_set_no": 999,
        "meta_rev_at_epoch": 1920,
        "meta_bstar": 0.00046350794,
        "meta_mean_motion_dot": 9.779e-05,
        "meta_mean_motion_ddot": 0,
        "tle_line1": "1 64900U 25156B   25333.54735096  .00009779  00000+0  46351-3 0  9996",
        "tle_line2": "2 64900  97.6723  49.0485 0136866 160.1625 200.5002 15.11495615 19205"
      },
      "geometry": {
        "type": "Point",
        "coordinates": [
          45.03636937614082,
          41.06328420178534
        ]
      }
    },
    {
      "type": "Feature",
      "properties": {
        "norad_id": 64901,
        "name": "CO3D 4",
        "group": "resource",
        "lat": 51.49615731986753,
        "lon": -117.76452876707806,
        "alt_km": 500.7726357721649,
        "timestamp": "2025-12-02T06:27:52.679147+00:00",
        "meta_object_name": "CO3D 4",
        "meta_object_id": "2025-156C",
        "meta_epoch": "2025-12-01T18:50:45.474720",
        "meta_mean_motion": 15.20204195,
        "meta_eccentricity": 0.0001211,
        "meta_inclination": 97.4354,
        "meta_ra_of_asc_node": 52.3098,
        "meta_arg_of_pericenter": 238.3057,
        "meta_mean_anomaly": 121.806,
        "meta_ephemeris_type": 0,
        "meta_classification_type": "U",
        "meta_norad_cat_id": 64901,
        "meta_element_set_no": 999,
        "meta_rev_at_epoch": 1954,
        "meta_bstar": -1.4421e-05,
        "meta_mean_motion_dot": -3.8e-06,
        "meta_mean_motion_ddot": 0,
        "tle_line1": "1 64901U 25156C   25335.78524855 -.00000380  00000+0 -14421-4 0  9999",
        "tle_line2": "2 64901  97.4354  52.3098 0001211 238.3057 121.8060 15.20204195 19540"
      },
      "geometry": {
        "type": "Point",
        "coordinates": [
          -117.76452876707806,
          51.49615731986753
        ]
      }
    }
  ]
}